NORAD_CAT_ID,OBJECT_NAME,OBJECT_TYPE,EPOCH,MEAN_MOTION,ECCENTRICITY,INCLINATION,RA_OF_ASC_NODE,ARG_OF_PERICENTER,MEAN_ANOMALY,BSTAR,MEAN_MOTION_DOT,MEAN_MOTION_DDOT,TLE_LINE0,TLE_LINE1,TLE_LINE2,SEMIMAJOR_AXIS,PERIOD,APOGEE,PERIGEE,DECAYED
55785.0,STARLINK-5818,PAYLOAD,2024-05-18 20:13:36,14.98329776,0.0002699,70.0009,68.3228,272.7168,87.3682,-0.00023498,-2.895e-05,0.0,0 STARLINK-5818,1 55785U 23028AW  24139.84278810 -.00002895  00000-0 -23498-3 0  9997,2 55785  70.0009  68.3228 0002699 272.7168  87.3682 14.98329776 68178,6950.194,96.107,573.934,570.183,0.0
55785.0,STARLINK-5818,PAYLOAD,2024-05-18 21:49:45,14.98331777,0.0002614,70.0016,68.1552,272.379,87.707,-0.00030881,-3.776e-05,0.0,0 STARLINK-5818,1 55785U 23028AW  24139.90954897 -.00003776  00000-0 -30881-3 0  9993,2 55785  70.0016  68.1552 0002614 272.3790  87.7070 14.98331777 68199,6950.187,96.107,573.869,570.236,0.0
55785.0,STARLINK-5818,PAYLOAD,2024-05-19 04:14:17,14.98325618,0.0002705,70.0019,67.482,269.517,90.5679,-0.00021702,-2.681e-05,0.0,0 STARLINK-5818,1 55785U 23028AW  24140.17659048 -.00002681  00000-0 -21702-3 0  9990,2 55785  70.0019  67.4820 0002705 269.5170  90.5679 14.98325618 68232,6950.206,96.107,573.951,570.191,0.0
55785.0,STARLINK-5818,PAYLOAD,2024-05-19 20:15:37,14.9835243,0.0003182,70.0,65.7975,269.5275,90.5519,-0.0004076,-4.956e-05,0.0,0 STARLINK-5818,1 55785U 23028AW  24140.84418059 -.00004956  00000-0 -40760-3 0  9991,2 55785  70.0000  65.7975 0003182 269.5275  90.5519 14.98352430 68325,6950.124,96.106,574.2,569.777,0.0
55785.0,STARLINK-5818,PAYLOAD,2024-05-20 04:16:16,14.9834139,0.000287,70.0012,64.9549,263.134,96.9493,0.00020778,2.388e-05,0.0,0 STARLINK-5818,1 55785U 23028AW  24141.17796835  .00002388  00000-0  20778-3 0  9991,2 55785  70.0012  64.9549 0002870 263.1340  96.9493 14.98341390 68382,6950.158,96.106,574.017,570.028,0.0
55785.0,STARLINK-5818,PAYLOAD,2024-05-20 20:17:38,14.98321283,0.000286,70.0037,63.2754,251.2472,108.8376,0.00014584,1.647e-05,0.0,0 STARLINK-5818,1 55785U 23028AW  24141.84558178  .00001647  00000-0  14584-3 0  9996,2 55785  70.0037  63.2754 0002860 251.2472 108.8376 14.98321283 68474,6950.22,96.108,574.073,570.097,0.0
55785.0,STARLINK-5818,PAYLOAD,2024-05-21 04:18:18,14.98329121,0.000308,70.0006,62.4305,264.0689,96.0119,0.00011181,1.241e-05,0.0,0 STARLINK-5818,1 55785U 23028AW  24142.17937881  .00001241  00000-0  11181-3 0  9995,2 55785  70.0006  62.4305 0003080 264.0689  96.0119 14.98329121 68528,6950.196,96.107,574.201,569.92,0.0
55785.0,STARLINK-5818,PAYLOAD,2024-05-21 21:55:47,14.98334356,0.0002897,70.0011,60.5801,260.1675,99.9157,-0.00010739,-1.374e-05,0.0,0 STARLINK-5818,1 55785U 23028AW  24142.91374184 -.00001374  00000-0 -10739-3 0  9995,2 55785  70.0011  60.5801 0002897 260.1675  99.9157 14.98334356 68644,6950.179,96.107,574.058,570.031,0.0
55785.0,STARLINK-5818,PAYLOAD,2024-05-22 04:20:19,14.98337808,0.0002829,70.0012,59.9061,261.0268,99.0571,-8.3456e-05,-1.089e-05,0.0,0 STARLINK-5818,1 55785U 23028AW  24143.18077822 -.00001089  00000-0 -83456-4 0  9994,2 55785  70.0012  59.9061 0002829 261.0268  99.0571 14.98337808 68677,6950.169,96.106,574.0,570.068,0.0
55785.0,STARLINK-5818,PAYLOAD,2024-05-22 21:57:48,14.98329614,0.0002844,70.0017,58.0548,264.4395,95.644,2.6423e-05,2.22e-06,0.0,0 STARLINK-5818,1 55785U 23028AW  24143.91513920  .00000222  00000-0  26423-4 0  9996,2 55785  70.0017  58.0548 0002844 264.4395  95.6440 14.98329614 68793,6950.194,96.107,574.036,570.082,0.0
55785.0,STARLINK-5818,PAYLOAD,2024-05-23 04:22:20,14.98327115,0.0002863,70.0013,57.382,262.4653,97.6181,-3.2621e-05,-4.82e-06,0.0,0 STARLINK-5818,1 55785U 23028AW  24144.18218248 -.00000482  00000-0 -32621-4 0  9998,2 55785  70.0013  57.3820 0002863 262.4653  97.6181 14.98327115 68822,6950.202,96.107,574.057,570.077,0.0
55785.0,STARLINK-5818,PAYLOAD,2024-05-23 20:23:40,14.98333222,0.000299,70.0009,55.6984,267.3776,92.7041,1.8734e-05,1.31e-06,0.0,0 STARLINK-5818,1 55785U 23028AW  24144.84977760  .00000131  00000-0  18734-4 0  9990,2 55785  70.0009  55.6984 0002990 267.3776  92.7041 14.98333222 68939,6950.183,96.107,574.126,569.97,0.0
55785.0,STARLINK-5818,PAYLOAD,2024-05-24 04:24:20,14.98341886,0.0002845,70.0011,54.8568,265.2809,94.8025,0.00012245,1.369e-05,0.0,0 STARLINK-5818,1 55785U 23028AW  24145.18356785  .00001369  00000-0  12245-3 0  9990,2 55785  70.0011  54.8568 0002845 265.2809  94.8025 14.98341886 68978,6950.156,96.106,573.998,570.044,0.0
55785.0,STARLINK-5818,PAYLOAD,2024-05-24 20:25:41,14.98328595,0.0002532,70.0019,53.1733,258.2119,101.8756,3.1701e-05,2.85e-06,0.0,0 STARLINK-5818,1 55785U 23028AW  24145.85117664  .00000285  00000-0  31701-4 0  9990,2 55785  70.0019  53.1733 0002532 258.2119 101.8756 14.98328595 69075,6950.197,96.107,573.822,570.302,0.0
55785.0,STARLINK-5818,PAYLOAD,2024-05-24 22:01:49,14.98328957,0.0002512,70.0019,53.0052,258.8963,101.1913,3.3241e-05,3.04e-06,0.0,0 STARLINK-5818,1 55785U 23028AW  24145.91793644  .00000304  00000-0  33241-4 0  9998,2 55785  70.0019  53.0052 0002512 258.8963 101.1913 14.98328957 69091,6950.196,96.107,573.807,570.315,0.0
55785.0,STARLINK-5818,PAYLOAD,2024-05-25 10:50:55,14.98318715,0.0002589,70.001,51.6588,267.9125,92.1737,-0.0003051,-3.73e-05,0.0,0 STARLINK-5818,1 55785U 23028AW  24146.45203473 -.00003730  00000-0 -30510-3 0  9997,2 55785  70.0010  51.6588 0002589 267.9125  92.1737 14.98318715 69167,6950.228,96.108,573.892,570.293,0.0
55785.0,STARLINK-5818,PAYLOAD,2024-05-26 04:28:25,14.98307495,0.0002617,70.0016,49.8082,264.6837,95.4024,-0.00026282,-3.225e-05,0.0,0 STARLINK-5818,1 55785U 23028AW  24147.18641000 -.00003225  00000-0 -26282-3 0  9990,2 55785  70.0016  49.8082 0002617 264.6837  95.4024 14.98307495 69277,6950.262,96.108,573.946,570.309,0.0
55785.0,STARLINK-5818,PAYLOAD,2024-05-26 20:29:45,14.98324482,0.00037,70.0007,48.1242,282.8764,77.1982,2.0938e-05,1.57e-06,0.0,0 STARLINK-5818,1 55785U 23028AW  24147.85399345  .00000157  00000-0  20938-4 0  9998,2 55785  70.0007  48.1242 0003700 282.8764  77.1982 14.98324482 69378,6950.21,96.107,574.647,569.503,0.0
55785.0,STARLINK-5818,PAYLOAD,2024-05-26 22:05:52,14.98330134,0.0002506,70.0011,47.955,260.4001,99.6875,8.5154e-05,9.23e-06,0.0,0 STARLINK-5818,1 55785U 23028AW  24147.92074786  .00000923  00000-0  85154-4 0  9997,2 55785  70.0011  47.9550 0002506 260.4001  99.6875 14.98330134 69394,6950.192,96.107,573.799,570.316,0.0
55785.0,STARLINK-5818,PAYLOAD,2024-05-27 02:54:16,14.98335363,0.0003143,70.0007,47.4503,272.5941,87.4858,0.00013548,1.524e-05,0.0,0 STARLINK-5818,1 55785U 23028AW  24148.12102329  .00001524  00000-0  13548-3 0  9990,2 55785  70.0007  47.4503 0003143 272.5941  87.4858 14.98335363 69415,6950.176,96.107,574.226,569.857,0.0
55785.0,STARLINK-5818,PAYLOAD,2024-05-27 10:54:56,14.98331886,0.0002628,70.0008,46.6085,271.4916,88.5942,0.00019447,2.228e-05,0.0,0 STARLINK-5818,1 55785U 23028AW  24148.45482438  .00002228  00000-0  19447-3 0  9994,2 55785  70.0008  46.6085 0002628 271.4916  88.5942 14.98331886 69477,6950.187,96.107,573.879,570.226,0.0
55785.0,STARLINK-5818,PAYLOAD,2024-05-27 22:07:53,14.98327755,0.0003319,69.9996,45.4297,275.8229,84.2552,0.00029871,3.473e-05,0.0,0 STARLINK-5818,1 55785U 23028AW  24148.92214355  .00003473  00000-0  29871-3 0  9992,2 55785  69.9996  45.4297 0003319 275.8229  84.2552 14.98327755 69543,6950.2,96.107,574.372,569.758,0.0
55785.0,STARLINK-5818,PAYLOAD,2024-05-28 02:56:16,14.98335975,0.0003152,70.0,44.9256,273.243,86.8369,0.00037402,4.373e-05,0.0,0 STARLINK-5818,1 55785U 23028AW  24149.12241547  .00004373  00000-0  37402-3 0  9997,2 55785  70.0000  44.9256 0003152 273.2430  86.8369 14.98335975 69561,6950.174,96.107,574.23,569.849,0.0
55785.0,STARLINK-5818,PAYLOAD,2024-05-28 20:33:45,14.98341231,0.0002667,70.0011,43.0755,263.2696,96.816,-4.5618e-05,-6.37e-06,0.0,0 STARLINK-5818,1 55785U 23028AW  24149.85677955 -.00000637  00000-0 -45618-4 0  9993,2 55785  70.0011  43.0755 0002667 263.2696  96.8160 14.98341231 69674,6950.158,96.106,573.877,570.17,0.0
55785.0,STARLINK-5818,PAYLOAD,2024-05-28 22:09:53,14.98340699,0.0002675,70.0011,42.9071,263.2996,96.7859,-5.1321e-05,-7.05e-06,0.0,0 STARLINK-5818,1 55785U 23028AW  24149.92353947 -.00000705  00000-0 -51321-4 0  9997,2 55785  70.0011  42.9071 0002675 263.2996  96.7859 14.98340699 69698,6950.16,96.106,573.884,570.166,0.0
55785.0,STARLINK-5818,PAYLOAD,2024-05-29 02:58:18,14.98338513,0.0002732,70.0011,42.402,265.0429,95.0419,-7.6725e-05,-1.008e-05,0.0,0 STARLINK-5818,1 55785U 23028AW  24150.12382020 -.00001008  00000-0 -76725-4 0  9997,2 55785  70.0011  42.4020 0002732 265.0429  95.0419 14.98338513 69722,6950.167,96.106,573.93,570.133,0.0
55785.0,STARLINK-5818,PAYLOAD,2024-05-29 20:35:46,14.98338971,0.0002725,70.0011,40.5506,261.9698,98.1152,-0.00012816,-1.622e-05,0.0,0 STARLINK-5818,1 55785U 23028AW  24150.85817646 -.00001622  00000-0 -12816-3 0  9996,2 55785  70.0011  40.5506 0002725 261.9698  98.1152 14.98338971 69822,6950.165,96.106,573.924,570.136,0.0
55785.0,STARLINK-5818,PAYLOAD,2024-05-29 22:11:54,14.98335638,0.000276,70.0011,40.3827,259.5895,100.4953,-9.0713e-05,-1.175e-05,0.0,0 STARLINK-5818,1 55785U 23028AW  24150.92493697 -.00001175  00000-0 -90713-4 0  9996,2 55785  70.0011  40.3827 0002760 259.5895 100.4953 14.98335638 69842,6950.175,96.107,573.959,570.122,0.0
55785.0,STARLINK-5818,PAYLOAD,2024-05-30 03:00:18,14.98350864,0.0002832,70.0011,39.8776,260.8645,99.2193,-0.00031537,-3.856e-05,0.0,0 STARLINK-5818,1 55785U 23028AW  24151.12521305 -.00003856  00000-0 -31537-3 0  9993,2 55785  70.0011  39.8776 0002832 260.8645  99.2193 14.98350864 69878,6950.128,96.106,573.962,570.025,0.0
55785.0,STARLINK-5818,PAYLOAD,2024-05-30 22:13:54,14.98331655,0.0002863,70.0006,37.8563,265.344,94.7392,4.3898e-05,4.31e-06,0.0,0 STARLINK-5818,1 55785U 23028AW  24151.92633098  .00000431  00000-0  43898-4 0  9992,2 55785  70.0006  37.8563 0002863 265.3440  94.7392 14.98331655 69992,6950.188,96.107,574.043,570.063,0.0
